H-2A R/B                
1 28932U 06002B   26202.91813247  .00009035  00000+0  42671-3 0  9998
2 28932  98.2602   1.9084 0051145 143.4049 217.0694 15.18520881114796
RESURS-DK 1             
1 29228U 06021A   26203.20076336  .00001465  00000+0  88067-4 0  9990
2 29228  69.9299 248.9069 0007512 263.5689  96.4622 15.13337200107878
CZ-4B R/B               
1 29507U 06046C   26203.12570853  .00004024  00000+0  19845-3 0  9992
2 29507  97.5433 247.6258 0033243 158.3727 201.8920 15.18020054 80431
CZ-2C R/B               
1 31114U 07010B   26203.14324313  .00000058  00000+0  45946-4 0  9996
2 31114  98.4120 309.7888 0057792 263.1439  96.3161 14.20283082998807
COSMO-SKYMED 1          
1 31598U 07023A   26203.28949384  .00002568  00000+0  22696-3 0  9996
2 31598  97.8856  35.4433 0001827  94.1149 266.0282 14.97249027 35042
COSMOS 2428             
1 31792U 07029A   26202.62124984  .00000327  00000+0  20107-3 0  9992
2 31792  70.9382 282.1802 0007306  68.5164 291.6735 14.12938981983012
SL-16 R/B               
1 31793U 07029B   26203.17668422  .00000313  00000+0  18711-3 0  9997
2 31793  70.9740 249.6766 0001921 259.6796 162.2456 14.14856181984397
KORONAS-FOTON           
1 33504U 09003A   26203.15770015  .00013356  00000+0  26840-3 0  9996
2 33504  82.4307 135.7626 0011511  40.3336 319.8764 15.46422595966506
CZ-2C R/B               
1 37731U 11030B   26203.31668787  .00000706  00000+0  95021-4 0  9998
2 37731  97.8673 158.0752 0050649 272.3157 254.9295 14.81541603810022
H-2A R/B                
1 38341U 12025E   26202.87523802  .00001802  00000+0  16465-3 0  9991
2 38341  98.4851 180.8890 0042745 232.3563 127.3774 14.95853638768279
SHIJIAN-16 (SJ-16)      
1 39358U 13057A   26203.29377589  .00001310  00000+0  12960-3 0  9992
2 39358  74.9731 290.1901 0015475 147.7042 212.5097 14.92685008691588
SL-4 R/B                
1 39679U 14021B   26202.92388618  .00009915  00000+0  20297-3 0  9995
2 39679  51.6070  40.5128 0089328 233.2860 125.9896 15.42577652676978
ALOS-2                  
1 39766U 14029A   26203.24062488  .00001137  00000+0  15916-3 0  9990
2 39766  97.9224 299.9036 0001592  94.1198 266.0195 14.79471039656767
YAOGAN-29               
1 41038U 15069A   26203.32835978  .00000341  00000+0  48454-4 0  9991
2 41038  98.0024 232.0148 0000107  76.3009 283.8216 14.83111092575832
ASTRO-H (HITOMI)        
1 41337U 16012A   26203.25331495  .00001843  00000+0  10297-3 0  9990
2 41337  30.9973 207.6939 0009697 245.9322 114.0302 15.10652747572592
HXMT (HUIYAN)           
1 42758U 17034A   26203.25724986  .00004878  00000+0  23917-3 0  9998
2 42758  43.0152 347.7230 0031349   5.3232 354.7945 15.18733368502991
SAOCOM 1A               
1 43641U 18076A   26203.24155793 -.00000195  00000+0 -17912-4 0  9999
2 43641  97.8897  29.4810 0001479  85.6569 274.4813 14.82149167421292
H-2A R/B                
1 43682U 18084L   26203.14792385  .00021817  00000+0  43955-3 0  9993
2 43682  98.8522  89.7076 0020255 274.2711  85.6220 15.46392516426528
SAOCOM 1B               
1 46265U 20059A   26203.27276412  .00000282  00000+0  41942-4 0  9998
2 46265  97.8902  28.6084 0001500  87.6575 272.4810 14.82145499318689
CSS (TIANHE)            
1 48274U 21035A   26203.00893083  .00009510  00000+0  12634-3 0  9993
2 48274  41.4674 110.5280 0001465 308.5381  51.5326 15.58239681298609
COSMOS 2550             
1 48865U 21056A   26203.30158531  .00005599  00000+0  17559-3 0  9991
2 48865  67.1442 353.6858 0008564 269.3788  90.6385 15.33879440284101
CZ-2C R/B               
1 52794U 22058K   26202.76309242  .00041631  00000+0  42140-3 0  9997
2 52794  50.1861 343.2767 0030001  49.9833 310.3767 15.64239186231055
CZ-2C R/B               
1 54039U 22132E   26202.99900939  .00072457  00000+0  47195-3 0  9994
2 54039  97.2895 211.6874 0008434 308.6978  51.3532 15.75655151211422
GSLV R/B                
1 54149U 22138AN  26202.73594203  .00001921  00000+0  16201-3 0  9999
2 54149  87.3815 121.3830 0022739  30.3039 329.9502 14.97404467203984
XRISM                   
1 57800U 23137A   26203.09880171  .00004102  00000+0  22295-3 0  9992
2 57800  31.0017 133.4085 0007828 314.7124  45.2877 15.12705899158155
ACS3                    
1 59588U 24077B   26202.56437101  .00005961  00000+0  40982-2 0  9999
2 59588  97.1683 113.7595 0130605  29.4120 331.4316 13.95602966112838
SPACEMOBILE-003         
1 61045U 24163A   26201.99683206  .00002028  00000+0  10564-3 0  9996
2 61045  52.9677 153.9638 0004157 213.3860 146.6872 15.20726769102911
SPACEMOBILE-005         
1 61046U 24163B   26203.16331825  .00002516  00000+0  12789-3 0  9998
2 61046  52.9739 148.5582 0008184 216.0636 143.9807 15.20635294103083
SPACEMOBILE-001         
1 61047U 24163C   26202.83302022  .00000503  00000+0  37332-4 0  9995
2 61047  52.9716 149.7842 0006610 211.1317 148.9286 15.20687307103038
SPACEMOBILE-002         
1 61048U 24163D   26202.15995894  .00014941  00000+0  68857-3 0  9992
2 61048  52.9778 152.9178 0004354 211.0455 149.0283 15.20486096102939
