OBJECT_NAME,OBJECT_ID,EPOCH,MEAN_MOTION,ECCENTRICITY,INCLINATION,RA_OF_ASC_NODE,ARG_OF_PERICENTER,MEAN_ANOMALY,EPHEMERIS_TYPE,CLASSIFICATION_TYPE,NORAD_CAT_ID,ELEMENT_SET_NO,REV_AT_EPOCH,BSTAR,MEAN_MOTION_DOT,MEAN_MOTION_DDOT
H-2A R/B,2006-002B,2026-07-21T22:02:06.645408,15.18520881,.00511457,98.2602,1.9084,143.4049,217.0694,0,U,28932,999,11479,.42671415E-3,.9035E-4,0
RESURS-DK 1,2006-021A,2026-07-22T04:49:05.954304,15.13337200,.00075126,69.9299,248.9069,263.5689,96.4622,0,U,29228,999,10787,.88067496E-4,.1465E-4,0
CZ-4B R/B,2006-046C,2026-07-22T03:01:01.216992,15.18020054,.00332434,97.5433,247.6258,158.3727,201.8920,0,U,29507,999,8043,.19844881E-3,.4024E-4,0
CZ-2C R/B,2007-010B,2026-07-22T03:26:16.206432,14.20283082,.00577921,98.4120,309.7888,263.1439,96.3161,0,U,31114,999,99880,.45946202E-4,.58E-6,0
COSMO-SKYMED 1,2007-023A,2026-07-22T06:56:52.267776,14.97249027,.00018275,97.8856,35.4433,94.1149,266.0282,0,U,31598,999,3504,.22695988E-3,.2568E-4,0
COSMOS 2428,2007-029A,2026-07-21T14:54:35.986176,14.12938981,.00073068,70.9382,282.1802,68.5164,291.6735,0,U,31792,999,98301,.20106628E-3,.327E-5,0
SL-16 R/B,2007-029B,2026-07-22T04:14:25.516608,14.14856181,.0001921,70.9740,249.6766,259.6796,162.2456,0,U,31793,999,98439,.18711361E-3,.313E-5,0
KORONAS-FOTON,2009-003A,2026-07-22T03:47:05.292960,15.46422595,.00115116,82.4307,135.7626,40.3336,319.8764,0,U,33504,999,96650,.26840195E-3,.13356E-3,0
CZ-2C R/B,2011-030B,2026-07-22T07:36:01.831968,14.81541603,.00506494,97.8673,158.0752,272.3157,254.9295,0,U,37731,999,81002,.95020903E-4,.706E-5,0
H-2A R/B,2012-025E,2026-07-21T21:00:20.564928,14.95853638,.0042745,98.4851,180.8890,232.3563,127.3774,0,U,38341,999,76827,.16465048E-3,.1802E-4,0
SHIJIAN-16 (SJ-16),2013-057A,2026-07-22T07:03:02.236896,14.92685008,.00154758,74.9731,290.1901,147.7042,212.5097,0,U,39358,999,69158,.12960366E-3,.131E-4,0
SL-4 R/B,2014-021B,2026-07-21T22:10:23.765952,15.42577652,.00893285,51.6070,40.5128,233.2860,125.9896,0,U,39679,999,67697,.20296862E-3,.9915E-4,0
ALOS-2,2014-029A,2026-07-22T05:46:29.989632,14.79471039,.00015926,97.9224,299.9036,94.1198,266.0195,0,U,39766,999,65676,.15916256E-3,.1137E-4,0
YAOGAN-29,2015-069A,2026-07-22T07:52:50.284992,14.83111092,.00001078,98.0024,232.0148,76.3009,283.8216,0,U,41038,999,57583,.48454014E-4,.341E-5,0
ASTRO-H (HITOMI),2016-012A,2026-07-22T06:04:46.411680,15.10652747,.00096977,30.9973,207.6939,245.9322,114.0302,0,U,41337,999,57259,.10297418E-3,.1843E-4,0
HXMT (HUIYAN),2017-034A,2026-07-22T06:10:26.387904,15.18733368,.0031349,43.0152,347.7230,5.3232,354.7945,0,U,42758,999,50299,.23917051E-3,.4878E-4,0
SAOCOM 1A,2018-076A,2026-07-22T05:47:50.605152,14.82149167,.00014797,97.8897,29.4810,85.6569,274.4813,0,U,43641,999,42129,-.17912048E-4,-.195E-5,0
H-2A R/B,2018-084L,2026-07-22T03:33:00.620640,15.46392516,.00202555,98.8522,89.7076,274.2711,85.6220,0,U,43682,999,42652,.4395464E-3,.21817E-3,0
SAOCOM 1B,2020-059A,2026-07-22T06:32:46.819968,14.82145499,.00015005,97.8902,28.6084,87.6575,272.4810,0,U,46265,999,31868,.41942008E-4,.282E-5,0
CSS (TIANHE),2021-035A,2026-07-22T00:12:51.623712,15.58239681,.00014657,41.4674,110.5280,308.5381,51.5326,0,U,48274,999,29860,.12634043E-3,.951E-4,0
COSMOS 2550,2021-056A,2026-07-22T07:14:16.970784,15.33879440,.00085644,67.1442,353.6858,269.3788,90.6385,0,U,48865,999,28410,.17559474E-3,.5599E-4,0
CZ-2C R/B,2022-058K,2026-07-21T18:18:51.185088,15.64239186,.00300012,50.1861,343.2767,49.9833,310.3767,0,U,52794,999,23105,.42140328E-3,.41631E-3,0
CZ-2C R/B,2022-132E,2026-07-21T23:58:34.411296,15.75655151,.00084345,97.2895,211.6874,308.6978,51.3532,0,U,54039,999,21142,.47195042E-3,.72457E-3,0
GSLV R/B,2022-138AN,2026-07-21T17:39:45.391392,14.97404467,.00227397,87.3815,121.3830,30.3039,329.9502,0,U,54149,999,20398,.16200529E-3,.1921E-4,0
XRISM,2023-137A,2026-07-22T02:22:16.467744,15.12705899,.0007828,31.0017,133.4085,314.7124,45.2877,0,U,57800,999,15815,.2229534E-3,.4102E-4,0
ACS3,2024-077B,2026-07-21T13:32:41.655264,13.95602966,.01306056,97.1683,113.7595,29.4120,331.4316,0,U,59588,999,11283,.40982285E-2,.5961E-4,0
SPACEMOBILE-003,2024-163A,2026-07-20T23:55:26.289984,15.20726769,.00041577,52.9677,153.9638,213.3860,146.6872,0,U,61045,999,10291,.10564199E-3,.2028E-4,0
SPACEMOBILE-005,2024-163B,2026-07-22T03:55:10.696800,15.20635294,.00081843,52.9739,148.5582,216.0636,143.9807,0,U,61046,999,10308,.1278885E-3,.2516E-4,0
SPACEMOBILE-001,2024-163C,2026-07-21T19:59:32.947008,15.20687307,.00066101,52.9716,149.7842,211.1317,148.9286,0,U,61047,999,10303,.37332219E-4,.503E-5,0
SPACEMOBILE-002,2024-163D,2026-07-21T03:50:20.452416,15.20486096,.00043548,52.9778,152.9178,211.0455,149.0283,0,U,61048,999,10293,.68857266E-3,.14941E-3,0
